start=new Date('2022-04-01T00:00:00.000Z').valueOf();
sats=[{"DECAY_DATE":null,"TLE_LINE1":"1 47629U 21012K   22090.58334491  .00016667  00000-0  11358-2 0  9990","PERIOD":"95.593","MEAN_ELEMENT_THEORY":"SGP4","LAUNCH_DATE":"2021-02-16","CENTER_NAME":"EARTH","APOAPSIS":"548.319","OBJECT_TYPE":"PAYLOAD","CLASSIFICATION_TYPE":"U","OBJECT_NAME":"STARLINK-1974","GP_ID":"200145635","TLE_LINE2":"2 47629  53.0540 292.0123 0001508  77.2070 225.1428 15.06380087  3592","MEAN_MOTION_DOT":"0.00016667","TIME_SYSTEM":"UTC","REF_FRAME":"TEME","MEAN_MOTION":"15.06380087","REV_AT_EPOCH":"359","EPOCH":"2022-03-31T14:00:01.000224","RCS_SIZE":"LARGE","MEAN_MOTION_DDOT":"0.0000000000000","MEAN_ANOMALY":"225.1428","SITE":"AFETR","OBJECT_ID":"2021-012K","ELEMENT_SET_NO":"999","FILE":"3381849","RA_OF_ASC_NODE":"292.0123","ARG_OF_PERICENTER":"77.2070","NORAD_CAT_ID":"47629","COUNTRY_CODE":"US","SEMIMAJOR_AXIS":"6925.410","INCLINATION":"53.0540","ECCENTRICITY":"0.00015080","PERIAPSIS":"546.230","EPHEMERIS_TYPE":"0","BSTAR":"0.00113580000000"},{"ARG_OF_PERICENTER":"54.0407","NORAD_CAT_ID":"47630","OBJECT_ID":"2021-012L","ELEMENT_SET_NO":"999","FILE":"3381849","RA_OF_ASC_NODE":"32.2042","ECCENTRICITY":"0.00018570","EPHEMERIS_TYPE":"0","PERIAPSIS":"545.928","BSTAR":"0.00003675100000","SEMIMAJOR_AXIS":"6925.349","COUNTRY_CODE":"US","INCLINATION":"53.0573","RCS_SIZE":"LARGE","MEAN_MOTION_DDOT":"0.0000000000000","EPOCH":"2022-03-31T13:02:19.329792","REV_AT_EPOCH":"6333","MEAN_ANOMALY":"306.0755","SITE":"AFETR","OBJECT_NAME":"STARLINK-1983","GP_ID":"200145392","APOAPSIS":"548.500","OBJECT_TYPE":"PAYLOAD","CLASSIFICATION_TYPE":"U","MEAN_MOTION":"15.06399915","TLE_LINE2":"2 47630  53.0573  32.2042 0001857  54.0407 306.0755 15.06399915 63338","REF_FRAME":"TEME","MEAN_MOTION_DOT":"0.00000266","TIME_SYSTEM":"UTC","DECAY_DATE":null,"TLE_LINE1":"1 47630U 21012L   22090.54327928  .00000266  00000-0  36751-4 0  9999","CENTER_NAME":"EARTH","PERIOD":"95.592","MEAN_ELEMENT_THEORY":"SGP4","LAUNCH_DATE":"2021-02-16"},{"OBJECT_TYPE":"PAYLOAD","CLASSIFICATION_TYPE":"U","APOAPSIS":"548.288","GP_ID":"200146637","OBJECT_NAME":"STARLINK-1992","TLE_LINE2":"2 47632  53.0536 317.0301 0001577  70.6526 139.3108 15.06405813  3592","MEAN_MOTION_DOT":"-0.00010134","REF_FRAME":"TEME","TIME_SYSTEM":"UTC","MEAN_MOTION":"15.06405813","TLE_LINE1":"1 47632U 21012N   22090.58334491 -.00010134  00000-0 -66225-3 0  9993","DECAY_DATE":null,"MEAN_ELEMENT_THEORY":"SGP4","LAUNCH_DATE":"2021-02-16","PERIOD":"95.592","CENTER_NAME":"EARTH","FILE":"3381849","RA_OF_ASC_NODE":"317.0301","OBJECT_ID":"2021-012N","ELEMENT_SET_NO":"999","NORAD_CAT_ID":"47632","ARG_OF_PERICENTER":"70.6526","SEMIMAJOR_AXIS":"6925.331","COUNTRY_CODE":"US","INCLINATION":"53.0536","EPHEMERIS_TYPE":"0","PERIAPSIS":"546.104","BSTAR":"-0.00066225000000","ECCENTRICITY":"0.00015770","REV_AT_EPOCH":"359","RCS_SIZE":"LARGE","MEAN_MOTION_DDOT":"0.0000000000000","EPOCH":"2022-03-31T14:00:01.000224","MEAN_ANOMALY":"139.3108","SITE":"AFETR"},{"FILE":"3381944","RA_OF_ASC_NODE":"51.5170","OBJECT_ID":"2021-012P","ELEMENT_SET_NO":"999","NORAD_CAT_ID":"47633","ARG_OF_PERICENTER":"57.3955","SEMIMAJOR_AXIS":"6925.343","COUNTRY_CODE":"US","INCLINATION":"53.0551","PERIAPSIS":"546.023","EPHEMERIS_TYPE":"0","BSTAR":"0.00015377000000","ECCENTRICITY":"0.00017100","REV_AT_EPOCH":"6258","MEAN_MOTION_DDOT":"0.0000000000000","RCS_SIZE":"LARGE","EPOCH":"2022-03-31T16:38:39.082560","MEAN_ANOMALY":"302.7199","SITE":"AFETR","OBJECT_TYPE":"PAYLOAD","CLASSIFICATION_TYPE":"U","APOAPSIS":"548.392","GP_ID":"200151617","OBJECT_NAME":"STARLINK-2009","TLE_LINE2":"2 47633  53.0551  51.5170 0001710  57.3955 302.7199 15.06401945 62583","MEAN_MOTION_DOT":"0.00002010","REF_FRAME":"TEME","TIME_SYSTEM":"UTC","MEAN_MOTION":"15.06401945","TLE_LINE1":"1 47633U 21012P   22090.69350790  .00002010  00000-0  15377-3 0  9990","DECAY_DATE":null,"MEAN_ELEMENT_THEORY":"SGP4","LAUNCH_DATE":"2021-02-16","PERIOD":"95.592","CENTER_NAME":"EARTH"},{"ECCENTRICITY":"0.00016350","BSTAR":"0.00009586500000","EPHEMERIS_TYPE":"0","PERIAPSIS":"546.079","INCLINATION":"53.0546","SEMIMAJOR_AXIS":"6925.347","COUNTRY_CODE":"US","ARG_OF_PERICENTER":"63.6522","NORAD_CAT_ID":"47634","ELEMENT_SET_NO":"999","OBJECT_ID":"2021-012Q","FILE":"3381849","RA_OF_ASC_NODE":"53.4078","SITE":"AFETR","MEAN_ANOMALY":"296.4635","MEAN_MOTION_DDOT":"0.0000000000000","RCS_SIZE":"LARGE","EPOCH":"2022-03-31T06:33:33.928704","REV_AT_EPOCH":"6302","MEAN_MOTION":"15.06400597","MEAN_MOTION_DOT":"0.00001147","REF_FRAME":"TEME","TIME_SYSTEM":"UTC","TLE_LINE2":"2 47634  53.0546  53.4078 0001635  63.6522 296.4635 15.06400597 63028","OBJECT_NAME":"STARLINK-2010","GP_ID":"200145142","APOAPSIS":"548.344","CLASSIFICATION_TYPE":"U","OBJECT_TYPE":"PAYLOAD","CENTER_NAME":"EARTH","PERIOD":"95.592","LAUNCH_DATE":"2021-02-16","MEAN_ELEMENT_THEORY":"SGP4","DECAY_DATE":null,"TLE_LINE1":"1 47634U 21012Q   22090.27330936  .00001147  00000-0  95865-4 0  9996"},{"MEAN_ELEMENT_THEORY":"SGP4","LAUNCH_DATE":"2021-02-16","PERIOD":"95.592","CENTER_NAME":"EARTH","TLE_LINE1":"1 47635U 21012R   22090.91667824 -.00010745  00000-0 -70345-3 0  9998","DECAY_DATE":null,"TLE_LINE2":"2 47635  53.0579 315.4274 0001371  69.9314  43.6203 15.06406013 63931","MEAN_MOTION_DOT":"-0.00010745","REF_FRAME":"TEME","TIME_SYSTEM":"UTC","MEAN_MOTION":"15.06406013","OBJECT_TYPE":"PAYLOAD","CLASSIFICATION_TYPE":"U","APOAPSIS":"548.145","GP_ID":"200151123","OBJECT_NAME":"STARLINK-2012","MEAN_ANOMALY":"43.6203","SITE":"AFETR","REV_AT_EPOCH":"6393","RCS_SIZE":"LARGE","MEAN_MOTION_DDOT":"0.0000000000000","EPOCH":"2022-03-31T22:00:00.999936","SEMIMAJOR_AXIS":"6925.330","COUNTRY_CODE":"US","INCLINATION":"53.0579","EPHEMERIS_TYPE":"0","PERIAPSIS":"546.246","BSTAR":"-0.00070345000000","ECCENTRICITY":"0.00013710","FILE":"3381944","RA_OF_ASC_NODE":"315.4274","OBJECT_ID":"2021-012R","ELEMENT_SET_NO":"999","NORAD_CAT_ID":"47635","ARG_OF_PERICENTER":"69.9314"},{"SITE":"AFETR","MEAN_ANOMALY":"279.2832","REV_AT_EPOCH":"6287","MEAN_MOTION_DDOT":"0.0000000000000","RCS_SIZE":"LARGE","EPOCH":"2022-03-31T18:59:18.782304","INCLINATION":"53.0586","COUNTRY_CODE":"US","SEMIMAJOR_AXIS":"6925.389","ECCENTRICITY":"0.00013140","BSTAR":"0.00008898400000","PERIAPSIS":"546.344","EPHEMERIS_TYPE":"0","ELEMENT_SET_NO":"999","OBJECT_ID":"2021-012S","FILE":"3381944","RA_OF_ASC_NODE":"31.0916","ARG_OF_PERICENTER":"80.8306","NORAD_CAT_ID":"47636","PERIOD":"95.593","LAUNCH_DATE":"2021-02-16","MEAN_ELEMENT_THEORY":"SGP4","CENTER_NAME":"EARTH","DECAY_DATE":null,"TLE_LINE1":"1 47636U 21012S   22090.79118961  .00001044  00000-0  88984-4 0  9997","REF_FRAME":"TEME","MEAN_MOTION_DOT":"0.00001044","TIME_SYSTEM":"UTC","TLE_LINE2":"2 47636  53.0586  31.0916 0001314  80.8306 279.2832 15.06386803 62875","MEAN_MOTION":"15.06386803","APOAPSIS":"548.164","CLASSIFICATION_TYPE":"U","OBJECT_TYPE":"PAYLOAD","OBJECT_NAME":"STARLINK-2013","GP_ID":"200151618"},{"INCLINATION":"53.0570","COUNTRY_CODE":"US","SEMIMAJOR_AXIS":"6925.328","ECCENTRICITY":"0.00018010","BSTAR":"0.00012387000000","PERIAPSIS":"545.946","EPHEMERIS_TYPE":"0","ELEMENT_SET_NO":"999","OBJECT_ID":"2021-012T","RA_OF_ASC_NODE":"33.0045","FILE":"3381849","ARG_OF_PERICENTER":"55.4324","NORAD_CAT_ID":"47637","SITE":"AFETR","MEAN_ANOMALY":"304.6835","REV_AT_EPOCH":"6333","RCS_SIZE":"LARGE","EPOCH":"2022-03-31T08:43:36.221952","MEAN_MOTION_DDOT":"0.0000000000000","MEAN_MOTION_DOT":"0.00001564","REF_FRAME":"TEME","TIME_SYSTEM":"UTC","TLE_LINE2":"2 47637  53.0570  33.0045 0001801  55.4324 304.6835 15.06406689 63336","MEAN_MOTION":"15.06406689","APOAPSIS":"548.440","CLASSIFICATION_TYPE":"U","OBJECT_TYPE":"PAYLOAD","OBJECT_NAME":"STARLINK-2014","GP_ID":"200146380","PERIOD":"95.592","LAUNCH_DATE":"2021-02-16","MEAN_ELEMENT_THEORY":"SGP4","CENTER_NAME":"EARTH","DECAY_DATE":null,"TLE_LINE1":"1 47637U 21012T   22090.36361368  .00001564  00000-0  12387-3 0  9992"},{"MEAN_ANOMALY":"272.4965","SITE":"AFETR","MEAN_MOTION_DDOT":"0.0000000000000","RCS_SIZE":"LARGE","EPOCH":"2022-03-31T19:49:03.758880","REV_AT_EPOCH":"6392","EPHEMERIS_TYPE":"0","PERIAPSIS":"546.398","BSTAR":"0.00013801000000","ECCENTRICITY":"0.00011850","COUNTRY_CODE":"US","SEMIMAJOR_AXIS":"6925.353","INCLINATION":"53.0508","NORAD_CAT_ID":"47638","ARG_OF_PERICENTER":"87.6159","FILE":"3381945","RA_OF_ASC_NODE":"315.9541","OBJECT_ID":"2021-012U","ELEMENT_SET_NO":"999","CENTER_NAME":"EARTH","MEAN_ELEMENT_THEORY":"SGP4","LAUNCH_DATE":"2021-02-16","PERIOD":"95.592","TLE_LINE1":"1 47638U 21012U   22090.82573795  .00001775  00000-0  13801-3 0  9999","DECAY_DATE":null,"MEAN_MOTION":"15.06398488","TLE_LINE2":"2 47638  53.0508 315.9541 0001185  87.6159 272.4965 15.06398488 63927","MEAN_MOTION_DOT":"0.00001775","REF_FRAME":"TEME","TIME_SYSTEM":"UTC","GP_ID":"200151130","OBJECT_NAME":"STARLINK-2015","OBJECT_TYPE":"PAYLOAD","CLASSIFICATION_TYPE":"U","APOAPSIS":"548.039"},{"EPOCH":"2022-03-31T12:58:22.287936","RCS_SIZE":"LARGE","MEAN_MOTION_DDOT":"0.0000000000000","REV_AT_EPOCH":"6283","MEAN_ANOMALY":"294.9003","SITE":"AFETR","ARG_OF_PERICENTER":"65.2140","NORAD_CAT_ID":"47639","OBJECT_ID":"2021-012V","ELEMENT_SET_NO":"999","FILE":"3381945","RA_OF_ASC_NODE":"32.2046","ECCENTRICITY":"0.00014840","EPHEMERIS_TYPE":"0","PERIAPSIS":"546.179","BSTAR":"0.00011498000000","COUNTRY_CODE":"US","SEMIMAJOR_AXIS":"6925.342","INCLINATION":"53.0572","DECAY_DATE":null,"TLE_LINE1":"1 47639U 21012V   22090.54053574  .00001432  00000-0  11498-3 0  9997","CENTER_NAME":"EARTH","PERIOD":"95.592","MEAN_ELEMENT_THEORY":"SGP4","LAUNCH_DATE":"2021-02-16","OBJECT_NAME":"STARLINK-2016","GP_ID":"200151132","APOAPSIS":"548.235","OBJECT_TYPE":"PAYLOAD","CLASSIFICATION_TYPE":"U","MEAN_MOTION":"15.06402092","TLE_LINE2":"2 47639  53.0572  32.2046 0001484  65.2140 294.9003 15.06402092 62830","MEAN_MOTION_DOT":"0.00001432","REF_FRAME":"TEME","TIME_SYSTEM":"UTC"}];
